BEIDOU-2 IGSO-1 (C06)   
1 36828U 10036A   26132.68902604 -.00000041  00000+0  00000+0 0  9990
2 36828  54.2951 163.2807 0058855 224.5644 197.8413  1.00282752 57743
BEIDOU-2 G4 (C04)       
1 37210U 10057A   26135.20618178 -.00000099  00000+0  00000+0 0  9993
2 37210   3.5646  69.1298 0005637 209.3825 188.6387  1.00272234 56962
BEIDOU-2 IGSO-2 (C07)   
1 37256U 10068A   26134.81364228 -.00000229  00000+0  00000+0 0  9990
2 37256  47.6127 272.2469 0054293 211.9004 147.4993  1.00294530 56455
BEIDOU-2 IGSO-3 (C08)   
1 37384U 11013A   26134.75077336 -.00000206  00000+0  00000+0 0  9992
2 37384  62.3634  40.4703 0033942 185.9417  24.6219  1.00276202 55324
BEIDOU-2 IGSO-4 (C09)   
1 37763U 11038A   26134.55136171  .00000083  00000+0  00000+0 0  9993
2 37763  54.5875 165.9688 0158111 233.6626 122.7564  1.00290878 54304
BEIDOU-2 IGSO-5 (C10)   
1 37948U 11073A   26134.85233405 -.00000174  00000+0  00000+0 0  9990
2 37948  47.7421 271.9571 0111838 220.5962 139.4077  1.00256060 52804
BEIDOU-2 G5 (C05)       
1 38091U 12008A   26135.04347544  .00000071  00000+0  00000+0 0  9996
2 38091   3.4907  69.8856 0010982 271.0078 326.2073  1.00271873 52035
BEIDOU-2 M3 (C11)       
1 38250U 12018A   26133.82337998 -.00000044  00000+0  00000+0 0  9991
2 38250  55.7884 306.0335 0019740 276.7159  83.0491  1.86230034 95304
BEIDOU-2 M4 (C12)       
1 38251U 12018B   26134.29258150 -.00000046  00000+0  00000+0 0  9998
2 38251  55.6884 305.2340 0010931 281.8081  78.0562  1.86229693 95318
BEIDOU-2 M6 (C14)       
1 38775U 12050B   26134.00242703 -.00000037  00000+0  00000+0 0  9991
2 38775  56.5158  64.0245 0014342 351.6260   8.3313  1.86230833 92676
BEIDOU-2 G6 (C02)       
1 38953U 12059A   26134.83461641 -.00000162  00000+0  00000+0 0  9992
2 38953   4.3366  73.8698 0010420 320.6012 222.6397  1.00271635 49575
BEIDOU-3S IGSO-1S (C31) 
1 40549U 15019A   26134.91969272 -.00000182  00000+0  00000+0 0  9999
2 40549  49.2600 295.8616 0037811 190.1402 171.7341  1.00257375 40748
BEIDOU-3S M2S (C58)     
1 40748U 15037A   26133.42160253 -.00000044  00000+0  00000+0 0  9994
2 40748  54.9026 303.2431 0007483 267.3673  92.5347  1.86232251 73474
BEIDOU-3S M1S (C57)     
1 40749U 15037B   26134.70702215 -.00000049  00000+0  00000+0 0  9992
2 40749  54.8981 303.1861 0004118  56.2797 303.7422  1.86254777 73506
BEIDOU-3S IGSO-2S (C56) 
1 40938U 15053A   26134.81413883 -.00000171  00000+0  00000+0 0  9998
2 40938  49.2758 259.1800 0064443 190.7694 172.1939  1.00267485 39022
BEIDOU-2 IGSO-6 (C13)   
1 41434U 16021A   26133.71344662 -.00000171  00000+0  00000+0 0  9992
2 41434  60.1795  38.3842 0057349 232.4091 312.1070  1.00265272 37136
BEIDOU-2 G7 (C03)       
1 41586U 16037A   26135.26765273 -.00000340  00000+0  00000+0 0  9992
2 41586   1.6381  69.0108 0007473 359.1347  11.7715  1.00268586  6567
BEIDOU-3 M1 (C19)       
1 43001U 17069A   26133.76780652 -.00000035  00000+0  00000+0 0  9994
2 43001  56.6631  64.2188 0011641 320.5367  39.3602  1.86231382 57969
BEIDOU-3 M2 (C20)       
1 43002U 17069B   26133.16952611 -.00000032  00000+0  00000+0 0  9992
2 43002  56.6620  64.2738 0009693 344.6836  15.2699  1.86229936 57940
BEIDOU-3 M7 (C27)       
1 43107U 18003A   26134.52202215 -.00000050  00000+0  00000+0 0  9996
2 43107  54.3594 303.4891 0005239  85.7155 274.3282  1.86228234 56729
BEIDOU-3 M8 (C28)       
1 43108U 18003B   26132.85647029 -.00000043  00000+0  00000+0 0  9999
2 43108  54.3540 303.5291 0002179 277.0252  82.9401  1.86231209 56700
BEIDOU-3 M4 (C22)       
1 43207U 18018A   26133.83609041 -.00000035  00000+0  00000+0 0  9997
2 43207  56.6222  64.2817 0007810   8.4475 351.5469  1.86231296 56106
BEIDOU-3 M3 (C21)       
1 43208U 18018B   26133.90253905 -.00000036  00000+0  00000+0 0  9991
2 43208  56.6215  64.2834 0009595 332.7979  27.1331  1.86231253 56109
BEIDOU-3 M9 (C29)       
1 43245U 18029A   26133.04629420 -.00000044  00000+0  00000+0 0  9997
2 43245  54.2274 301.1779 0000806 101.6627 258.3330  1.86228295 55242
BEIDOU-3 M10 (C30)      
1 43246U 18029B   26132.98083424 -.00000043  00000+0  00000+0 0  9997
2 43246  54.2250 301.2067 0004582  37.0226 322.9958  1.86229383 55221
BEIDOU-2 IGSO-7 (C16)   
1 43539U 18057A   26134.48418476  .00000023  00000+0  00000+0 0  9996
2 43539  55.1885 163.3530 0103946 237.7951 117.4564  1.00261150 28785
BEIDOU-3 M5 (C23)       
1 43581U 18062A   26134.81592912  .00000098  00000+0  00000+0 0  9996
2 43581  54.0834 183.4391 0004978 287.7441  72.2956  1.86228609 53019
BEIDOU-3 M6 (C24)       
1 43582U 18062B   26135.21619709  .00000098  00000+0  00000+0 0  9996
2 43582  54.0834 183.4147 0004769  15.7286 344.3811  1.86227511 53028
BEIDOU-3 M12 (C26)      
1 43602U 18067A   26135.15459098  .00000100  00000+0  00000+0 0  9994
2 43602  54.1786 182.1608 0007846  32.5009 327.6421  1.86227940 52504
BEIDOU-3 M11 (C25)      
1 43603U 18067B   26134.75259480  .00000100  00000+0  00000+0 0  9993
2 43603  54.1758 182.1382 0004429  17.6934 342.4159  1.86227418 52523
BEIDOU-3 M13 (C32)      
1 43622U 18072A   26133.63367348 -.00000035  00000+0  00000+0 0  9997
2 43622  56.5956  63.8000 0008352 321.7173  38.2058  1.86231484 52015
BEIDOU-3 M14 (C33)      
1 43623U 18072B   26134.03606905 -.00000037  00000+0  00000+0 0  9990
2 43623  56.5980  63.7808 0006648 347.7176  12.2477  1.86231503 52014
BEIDOU-3 M16 (C35)      
1 43647U 18078A   26132.58110638 -.00000042  00000+0  00000+0 0  9999
2 43647  54.1235 301.2337 0007880  39.7391 320.3068  1.86232272 51494
BEIDOU-3 M15 (C34)      
1 43648U 18078B   26134.85818057 -.00000051  00000+0  00000+0 0  9992
2 43648  54.1176 301.1547 0004943  52.6427 307.3818  1.86232411 51552
BEIDOU-3 G1 (C59)       
1 43683U 18085A   26135.20618178 -.00000100  00000+0  00000+0 0  9996
2 43683   2.7848  98.2523 0009499 337.0938  31.7776  1.00246679 27733
BEIDOU-3 M17 (C36)      
1 43706U 18093A   26135.02163778  .00000099  00000+0  00000+0 0  9998
2 43706  54.1669 183.4218 0009682 290.7181  70.9290  1.86228288 50921
BEIDOU-3 M18 (C37)      
1 43707U 18093B   26132.73439434  .00000084  00000+0  00000+0 0  9993
2 43707  54.1678 183.4917 0007396 321.8656  38.1678  1.86226542 50872
BEIDOU-3 IGSO-1 (C38)   
1 44204U 19023A   26132.76772565 -.00000227  00000+0  00000+0 0  9998
2 44204  58.6468  38.0171 0023856 234.3090 349.8662  1.00250503  6851
BEIDOU-2 G8 (C01)       
1 44231U 19027A   26135.27441275 -.00000233  00000+0  00000+0 0  9999
2 44231   1.5739  74.4308 0010782 281.2642 120.6393  1.00272297 25753
BEIDOU-3 IGSO-2 (C39)   
1 44337U 19035A   26132.65390358 -.00000046  00000+0  00000+0 0  9991
2 44337  55.2385 159.1745 0039680 215.7907 210.7620  1.00277740 25317
BEIDOU-3 M24 (C46)      
1 44542U 19061A   26134.95132601  .00000098  00000+0  00000+0 0  9994
2 44542  54.3947 183.8491 0008084   2.8875 357.2118  1.86229259 45175
BEIDOU-3 M23 (C45)      
1 44543U 19061B   26135.08854230  .00000099  00000+0  00000+0 0  9990
2 44543  54.3933 183.8129 0005245 342.0059  21.8904  1.86227266 45182
BEIDOU-3 IGSO-3 (C40)   
1 44709U 19073A   26120.85038409 -.00000212  00000+0  00000+0 0  9996
2 44709  54.8842 281.4069 0042404 188.8195 170.9972  1.00251230 23982
BEIDOU-3 M22 (C44)      
1 44793U 19078A   26133.17974627 -.00000045  00000+0  00000+0 0  9998
2 44793  53.9691 301.0594 0007131  47.8476 312.1989  1.86227440 43994
BEIDOU-3 M21 (C43)      
1 44794U 19078B   26130.09800295 -.00000037  00000+0  00000+0 0  9997
2 44794  53.9450 301.1295 0004992  44.9662 315.0658  1.86228028 43947
BEIDOU-3 M19 (C41)      
1 44864U 19090A   26134.37148076 -.00000039  00000+0  00000+0 0  9998
2 44864  56.5302  63.9086 0019040 296.9236 245.2774  1.86231675 43605
BEIDOU-3 M20 (C42)      
1 44865U 19090B   26135.22906975 -.00000042  00000+0  00000+0 0  9998
2 44865  56.5328  63.9149 0016737 310.0741 176.6927  1.86231500 43607
BEIDOU-3 G2 (C60)       
1 45344U 20017A   26135.11901613 -.00000128  00000+0  00000+0 0  9999
2 45344   2.7973  46.8151 0002483   9.9475 298.9904  1.00272165 22926
BEIDOU-3 G3 (C61)       
1 45807U 20040A   26135.26765273 -.00000341  00000+0  00000+0 0  9992
2 45807   2.3659  67.3554 0003208 333.6019  38.9466  1.00273975 21743
BEIDOU-3 G4 (C62)       
1 56564U 23066A   26135.27345942 -.00000268  00000+0  00000+0 0  9991
2 56564   0.5301 323.6144 0003515 173.6448 334.1924  1.00275377 11063
BEIDOU-3 M28 (C50)      
1 58654U 23207A   26132.32302171 -.00000030  00000+0  00000+0 0  9997
2 58654  55.7225  63.5128 0004245 330.2096  29.7521  1.86229701 16176
BEIDOU-3 M26 (C48)      
1 58655U 23207B   26133.19442925 -.00000035  00000+0  00000+0 0  9991
2 58655  55.7254  63.4698 0004439 309.9196  50.0251  1.86229676 16177
BEIDOU-3 M25 (C47)      
1 61186U 24168B   26134.63464834 -.00000050  00000+0  00000+0 0  9991
2 61186  54.5046 303.4082 0003091 312.9703  49.8050  1.86229921 11161
BEIDOU-3 M27 (C49)      
1 61187U 24168C   26133.36745762 -.00000045  00000+0  00000+0 0  9997
2 61187  54.5014 303.4354 0002241  43.5716 324.6381  1.86230101  8615
